{"type": "FeatureCollection", "features": [{"type": "Feature", "properties": {"name": "Rann of Kutch", "source": "OpenStreetMap relation 5448448 (ODbL)"}, "geometry": {"type": "Polygon", "coordinates": [[[70.7155765, 23.1963999], [70.722712, 23.2048187], [70.7333278, 23.205063], [70.7490778, 23.218552], [70.7459449, 23.2132276], [70.7604503, 23.2060886], [70.7674884, 23.2086918], [70.775299, 23.1940184], [70.7926368, 23.2022231], [70.8145236, 23.2056153], [70.8194159, 23.2019076], [70.8609271, 23.2228595], [70.8616446, 23.2135827], [70.8925436, 23.2209974], [70.8994101, 23.212005], [70.9407805, 23.2254145], [70.914688, 23.2597206], [70.926361, 23.2653192], [70.90456, 23.331065], [70.8782529, 23.319282], [70.8561086, 23.3191638], [70.8546973, 23.3346819], [70.8619049, 23.3380782], [70.8612608, 23.341817], [70.8710085, 23.3413152], [70.8792633, 23.353569], [70.8805776, 23.3677072], [70.8861117, 23.3648098], [70.885649, 23.3715063], [70.8904273, 23.3742795], [70.9014789, 23.3673254], [70.9905886, 23.3799846], [70.9831762, 23.3876697], [70.9717081, 23.3851131], [70.947573, 23.3932641], [70.9485393, 23.4021307], [70.9573048, 23.4009918], [70.9472471, 23.4090948], [70.9577501, 23.4027875], [70.968465, 23.4108876], [70.9965332, 23.4046126], [70.9871012, 23.4078209], [70.98718, 23.4130948], [70.9757822, 23.4154272], [70.9839171, 23.4186693], [70.9916001, 23.4103369], [70.9911042, 23.4144607], [70.99654, 23.4143911], [70.9906659, 23.4224435], [70.9951424, 23.4234157], [70.9958273, 23.4318989], [71.0011811, 23.4355612], [71.0363274, 23.4360076], [71.0358307, 23.4400023], [71.0266292, 23.440122], [71.0208343, 23.4441862], [71.0302678, 23.4409759], [71.0368133, 23.4495105], [71.0451491, 23.447472], [71.0431299, 23.4431238], [71.0551378, 23.4441237], [71.063704, 23.4389933], [71.0684746, 23.4229761], [71.0739467, 23.4252193], [71.0695292, 23.4369857], [71.0945035, 23.4290621], [71.109679, 23.4364482], [71.1182895, 23.434273], [71.1383186, 23.4485385], [71.1218797, 23.4495349], [71.1317567, 23.4567334], [71.138697, 23.454709], [71.1425255, 23.4672648], [71.1528584, 23.476643], [71.1459718, 23.473393], [71.1472721, 23.4762055], [71.155781, 23.4848365], [71.1523766, 23.4899008], [71.1418986, 23.4802673], [71.1380271, 23.482379], [71.1317113, 23.4712728], [71.1330048, 23.4823196], [71.1407864, 23.4891603], [71.1301167, 23.4935519], [71.1151753, 23.4838492], [71.1150604, 23.4766458], [71.1027524, 23.4657477], [71.0964944, 23.4668613], [71.0980312, 23.4758467], [71.1013536, 23.4742582], [71.1076282, 23.4829221], [71.0855337, 23.4971147], [71.0833281, 23.5076944], [71.078378, 23.5033861], [71.0769992, 23.5044337], [71.0811529, 23.511326], [71.0779493, 23.5116261], [71.0806556, 23.5151924], [71.0761336, 23.5203993], [71.0713525, 23.5536573], [71.0838354, 23.5576076], [71.0893372, 23.5436386], [71.1233328, 23.5228503], [71.143466, 23.5254046], [71.1445658, 23.5416002], [71.1197871, 23.5627824], [71.09171, 23.5701103], [71.0895628, 23.5755429], [71.0933751, 23.578322], [71.088817, 23.581342], [71.0820064, 23.5743577], [71.0838476, 23.5583793], [71.0721409, 23.5577137], [71.0539284, 23.5909426], [71.0453826, 23.5980031], [71.0432402, 23.616433], [71.0390295, 23.6114675], [71.0341907, 23.6146189], [71.0175831, 23.6333631], [71.0097993, 23.6540501], [71.0107082, 23.6769399], [70.9992807, 23.6787602], [70.9936196, 23.6739439], [70.9947897, 23.6774031], [70.9810224, 23.6908318], [70.972387, 23.6926152], [70.9748156, 23.7054506], [70.9707714, 23.7060166], [70.9678408, 23.7155751], [70.9700782, 23.7249385], [70.9630167, 23.7200109], [70.9571927, 23.7230436], [70.9431649, 23.7194897], [70.9283345, 23.737302], [70.912961, 23.7373647], [70.913931, 23.7463594], [70.9042969, 23.7374719], [70.8959644, 23.7411768], [70.8940527, 23.7442884], [70.9030416, 23.7472659], [70.9049215, 23.7516174], [70.8998418, 23.7483347], [70.8945464, 23.7590785], [70.8890595, 23.7567015], [70.8848254, 23.7441438], [70.8692705, 23.7511517], [70.8585445, 23.7439474], [70.8647789, 23.7694768], [70.8520994, 23.7527743], [70.8447033, 23.7536348], [70.8415343, 23.7469818], [70.8414954, 23.7541878], [70.8366041, 23.754246], [70.8476874, 23.7669806], [70.8412758, 23.7683439], [70.8280887, 23.755119], [70.8235164, 23.7780763], [70.8340613, 23.7722898], [70.8340017, 23.7680441], [70.8374378, 23.7737937], [70.8460427, 23.7693165], [70.8509966, 23.7736317], [70.8495578, 23.7805971], [70.8560303, 23.7834784], [70.8623636, 23.7765832], [70.8657142, 23.7860642], [70.8628413, 23.7904735], [70.8692465, 23.7885947], [70.8813803, 23.7961672], [70.8931353, 23.7967954], [70.8901973, 23.8063527], [70.9081954, 23.8130789], [70.9111878, 23.826423], [70.9249716, 23.8316553], [70.9178658, 23.8335453], [70.9220746, 23.862828], [70.883216, 23.8845377], [70.8791119, 23.8910211], [70.8484412, 23.8991128], [70.8402172, 23.9113061], [70.8098101, 23.8986721], [70.795992, 23.9114435], [70.772748, 23.9106841], [70.7278223, 23.9213602], [70.7143039, 23.9364377], [70.6907282, 23.9320667], [70.6535716, 23.9383902], [70.6260785, 23.956441], [70.6103153, 23.949916], [70.5786705, 23.94973], [70.5507758, 23.9353449], [70.5484609, 23.9290633], [70.5531831, 23.9259274], [70.5445019, 23.9257575], [70.5480797, 23.9205743], [70.5417594, 23.9188363], [70.5414551, 23.9049419], [70.5472211, 23.8954899], [70.5595433, 23.8960092], [70.5641869, 23.88644], [70.5706359, 23.8874037], [70.5670906, 23.8835795], [70.5694953, 23.8624513], [70.5658113, 23.8586286], [70.5737474, 23.8517677], [70.5707298, 23.8487987], [70.5763097, 23.8474549], [70.5772052, 23.8520783], [70.5765647, 23.8453935], [70.5860704, 23.8447812], [70.594331, 23.8338868], [70.6009886, 23.8370751], [70.6066879, 23.8149715], [70.6120751, 23.8208345], [70.6181411, 23.8136931], [70.6295843, 23.8116429], [70.6288322, 23.7962095], [70.6176232, 23.7718784], [70.6281904, 23.7671349], [70.6734869, 23.7669081], [70.6267332, 23.7623887], [70.6258417, 23.7581521], [70.630617, 23.7599033], [70.6355608, 23.7527733], [70.6495241, 23.7514671], [70.6271004, 23.7469434], [70.6258944, 23.7398792], [70.6172987, 23.7456312], [70.6174639, 23.7363645], [70.5994862, 23.7522507], [70.5557442, 23.7653082], [70.5445496, 23.7645193], [70.5358448, 23.7495507], [70.5471823, 23.7152081], [70.5457151, 23.7093031], [70.5347582, 23.7045224], [70.5436195, 23.6974853], [70.5258165, 23.6806755], [70.5253995, 23.6688407], [70.5195449, 23.682024], [70.5120359, 23.685186], [70.5025454, 23.6861786], [70.4977246, 23.6800486], [70.4933094, 23.6849811], [70.4773051, 23.6783149], [70.4754257, 23.6851527], [70.4688936, 23.675821], [70.4585207, 23.6728307], [70.4550169, 23.6592227], [70.4377717, 23.6408526], [70.4384608, 23.6272051], [70.4376776, 23.6322308], [70.4351257, 23.6287802], [70.4265183, 23.6336207], [70.4132902, 23.6244762], [70.4038071, 23.6258492], [70.4001118, 23.6198347], [70.3779347, 23.6093514], [70.366058, 23.5953002], [70.364449, 23.6017489], [70.3590538, 23.5931743], [70.3437157, 23.5953669], [70.3380313, 23.5856353], [70.3260227, 23.5856092], [70.2866112, 23.5677951], [70.2819191, 23.5446686], [70.2867197, 23.5358777], [70.2744066, 23.5327613], [70.2737577, 23.5233721], [70.2607341, 23.518845], [70.2656474, 23.5072224], [70.2565776, 23.507296], [70.2530044, 23.5131156], [70.2483847, 23.4968087], [70.241129, 23.4968666], [70.2415642, 23.483736], [70.2357117, 23.4845547], [70.2349392, 23.4765816], [70.2054208, 23.4678037], [70.2125316, 23.4520471], [70.2044342, 23.4513378], [70.2088589, 23.4317411], [70.2011608, 23.4287117], [70.206647, 23.4185017], [70.2254973, 23.4210581], [70.21659, 23.4077429], [70.223425, 23.4032252], [70.219301, 23.3992277], [70.2157109, 23.4031165], [70.2187291, 23.3976877], [70.2098593, 23.4036767], [70.1972534, 23.3974671], [70.1973331, 23.4063473], [70.1775531, 23.4088141], [70.1798117, 23.4118859], [70.1734186, 23.414379], [70.1586223, 23.4128168], [70.1799259, 23.4247553], [70.180263, 23.4313159], [70.1914377, 23.433162], [70.1973787, 23.442383], [70.1940799, 23.4478137], [70.2007983, 23.4503361], [70.2032437, 23.458554], [70.2012753, 23.4722113], [70.1889973, 23.4721764], [70.1908485, 23.4764098], [70.1823592, 23.478791], [70.1828691, 23.4890832], [70.1717, 23.5040968], [70.1683419, 23.5030922], [70.1709332, 23.5120818], [70.166236, 23.5175226], [70.1645963, 23.5056944], [70.1555173, 23.5047324], [70.1590572, 23.5106263], [70.1578108, 23.5116651], [70.1487779, 23.5000198], [70.1444615, 23.5012104], [70.1423079, 23.4941472], [70.1305925, 23.4948766], [70.1328889, 23.5023245], [70.1289794, 23.5020956], [70.1245067, 23.4848819], [70.1269439, 23.4761127], [70.1142786, 23.4798072], [70.1105175, 23.4638751], [70.1040424, 23.4569711], [70.1055381, 23.4690586], [70.0996851, 23.4698721], [70.1061348, 23.4736876], [70.1056154, 23.4783245], [70.100907, 23.4826046], [70.0952642, 23.4751796], [70.0901155, 23.4768893], [70.083465, 23.4654807], [70.0804032, 23.4664032], [70.0846748, 23.4769273], [70.0656442, 23.4701085], [70.0805185, 23.4805598], [70.0671221, 23.4803946], [70.0789122, 23.4889361], [70.0646614, 23.4867175], [70.0621085, 23.4815869], [70.0514975, 23.4807583], [70.0388655, 23.4713189], [70.0311067, 23.4783204], [70.0487028, 23.4802622], [70.0403779, 23.4862383], [70.0523529, 23.4830692], [70.0669528, 23.4940384], [70.0586073, 23.4974415], [70.0643673, 23.5022931], [70.0575793, 23.5085171], [70.0587368, 23.5136573], [70.0295323, 23.5092198], [70.0345866, 23.5130474], [70.0328048, 23.5171778], [70.041348, 23.520982], [70.0321647, 23.5246467], [70.0354176, 23.5300308], [70.060798, 23.5270283], [70.062263, 23.535641], [70.0711785, 23.5333923], [70.0720681, 23.5398213], [70.0815831, 23.542587], [70.0708912, 23.566857], [70.0506361, 23.5480754], [70.0417009, 23.5480073], [70.04649, 23.5533806], [70.0445773, 23.5586699], [70.0322416, 23.5523171], [70.0275121, 23.5545369], [70.0209908, 23.5417095], [70.0044312, 23.5302338], [69.9952122, 23.5293918], [69.984349, 23.5326789], [70.0002585, 23.5321909], [70.0154252, 23.5440625], [70.0206372, 23.5502061], [70.0212851, 23.5617852], [70.0164607, 23.5697966], [70.0416612, 23.5783815], [70.0536568, 23.5767561], [70.0568173, 23.587803], [70.0527797, 23.5893749], [70.0568502, 23.5919213], [70.0484299, 23.5966445], [70.0461413, 23.6090989], [70.0224492, 23.5858446], [70.0175957, 23.5857098], [70.0171765, 23.5983414], [69.9961286, 23.5756753], [69.9901498, 23.5806569], [69.9731194, 23.5811424], [69.9750035, 23.5903974], [69.9709761, 23.5935115], [69.9745078, 23.598895], [69.9672184, 23.5952076], [69.9602623, 23.5988546], [69.9481716, 23.5877319], [69.9399321, 23.587782], [69.9341472, 23.5793223], [69.9274882, 23.5855401], [69.9224232, 23.5801647], [69.9315162, 23.6022477], [69.924217, 23.5970139], [69.9130563, 23.5987536], [69.9096283, 23.6080405], [69.9158326, 23.6164986], [69.9095922, 23.6229706], [69.9199151, 23.6209787], [69.9235712, 23.6244325], [69.9110193, 23.6273382], [69.9149484, 23.6298891], [69.9122366, 23.641746], [69.9192487, 23.6455657], [69.8983157, 23.6490348], [69.9045018, 23.6546617], [69.8979558, 23.6577887], [69.9121455, 23.6689027], [69.947425, 23.6780869], [69.9342895, 23.6781667], [69.9394906, 23.6825111], [69.9329716, 23.6893714], [69.9265196, 23.6860639], [69.910324, 23.6883483], [69.9101042, 23.6969724], [69.8994164, 23.6873823], [69.9002866, 23.6920108], [69.8952537, 23.6917825], [69.8918171, 23.7002967], [69.9031987, 23.7089828], [69.9070873, 23.7053562], [69.9107768, 23.7133143], [69.9192811, 23.710175], [69.9231351, 23.7214779], [69.9189605, 23.7242052], [69.9144387, 23.717282], [69.9100095, 23.723615], [69.9083088, 23.7202787], [69.9035721, 23.7226231], [69.9047286, 23.7281502], [69.9086277, 23.7259399], [69.9330272, 23.7364764], [69.952876, 23.7359697], [69.949258, 23.7383086], [69.9585095, 23.7415977], [69.9682349, 23.7333003], [69.9827834, 23.7344955], [69.9609253, 23.7469882], [69.9623449, 23.7688587], [69.9552712, 23.7768822], [69.9470629, 23.7827238], [69.9365524, 23.7798283], [69.9353292, 23.7847264], [69.9412141, 23.786235], [69.9356513, 23.7906448], [69.9398416, 23.789847], [69.9418626, 23.7985865], [69.9338773, 23.8163958], [69.9442326, 23.8168475], [69.9350159, 23.8190912], [69.9327987, 23.8220653], [69.9392281, 23.8212541], [69.9347683, 23.8235977], [69.9413763, 23.8281907], [69.9396006, 23.8341218], [69.9502372, 23.8345714], [69.9553549, 23.845608], [69.9626361, 23.8463349], [69.9508851, 23.8466653], [69.9523294, 23.8528341], [69.9775588, 23.8771289], [69.9558873, 23.899144], [69.9495764, 23.9166862], [69.9379834, 23.9203609], [69.9360799, 23.9282228], [69.8913147, 23.9338945], [69.834443, 23.9698381], [69.8177685, 23.9661773], [69.8032897, 23.9691453], [69.8021604, 23.9753541], [69.7821282, 23.9834397], [69.7663663, 23.9836171], [69.7488392, 23.9739713], [69.7467955, 23.9833306], [69.7451646, 23.9830833], [69.7466047, 23.9731349], [69.7314477, 23.9659994], [69.7329683, 23.9618884], [69.7205872, 23.951779], [69.7036064, 23.9452942], [69.7030044, 23.9375747], [69.6974516, 23.9339233], [69.6974431, 23.9188093], [69.7013493, 23.9162173], [69.6963127, 23.9168833], [69.6861584, 23.9029006], [69.6815843, 23.8849021], [69.6867287, 23.878444], [69.6747873, 23.8753753], [69.6754661, 23.8603135], [69.6704639, 23.8612402], [69.6703674, 23.8728174], [69.6812259, 23.8921093], [69.693489, 23.9458608], [69.6567535, 23.957862], [69.6162414, 23.9642936], [69.6068, 23.9143228], [69.6208762, 23.9056916], [69.6398448, 23.9024744], [69.6391582, 23.8954119], [69.6570109, 23.8957258], [69.651432, 23.8795593], [69.6718597, 23.8226463], [69.6867942, 23.8197411], [69.7072153, 23.8319966], [69.7111813, 23.8195138], [69.7297225, 23.811164], [69.7293929, 23.7989649], [69.7158354, 23.8008302], [69.6927667, 23.7790495], [69.6705636, 23.7706417], [69.640798, 23.7745898], [69.5978573, 23.7991852], [69.5843435, 23.8314076], [69.5763311, 23.8385386], [69.5572746, 23.8336856], [69.5462004, 23.8357336], [69.5161853, 23.8267252], [69.4946014, 23.8300678], [69.4896411, 23.8333243], [69.489212, 23.846278], [69.4756507, 23.846121], [69.4745349, 23.8704549], [69.4250105, 23.8715538], [69.4064711, 23.8670014], [69.4041737, 23.8137319], [69.3963003, 23.8008164], [69.398961, 23.7855805], [69.3608092, 23.789586], [69.3591785, 23.8145587], [69.3997764, 23.8162861], [69.3982314, 23.8460425], [69.3608092, 23.8648035], [69.3374633, 23.8478481], [69.320383, 23.8440014], [69.3181514, 23.892116], [69.1922378, 23.8885845], [69.1952807, 23.8224874], [69.0154301, 23.8274604], [69.0076436, 23.8647243], [69.0098837, 23.8786083], [69.0198396, 23.8931735], [69.0861504, 23.9065553], [69.1119676, 23.9203969], [69.1218235, 23.9660791], [69.1161916, 24.0027419], [69.1252896, 24.0314141], [69.1714385, 24.0758435], [69.1947171, 24.1107799], [69.2325781, 24.1165184], [69.2341751, 24.1205322], [69.2187789, 24.127366], [69.192109, 24.128057], [69.1260089, 24.1152524], [69.1195307, 24.1148685], [69.1179259, 24.1202925], [69.1681048, 24.1332962], [69.2374024, 24.1399162], [69.314701, 24.0593018], [69.3196056, 24.0471391], [69.3736282, 24.0100781], [69.4311245, 23.9973975], [69.4613783, 23.9953792], [69.4957816, 23.9796979], [69.5086821, 23.9831312], [69.5115253, 23.9936757], [69.5232618, 23.9900606], [69.5224638, 23.9964703], [69.5269384, 23.9943958], [69.5181514, 24.0042074], [69.520547, 24.0075457], [69.5311771, 24.0031331], [69.5347878, 23.9953983], [69.5384729, 24.0056818], [69.5564082, 24.0061327], [69.5746902, 24.0215098], [69.5878251, 24.0134803], [69.6094602, 24.0257515], [69.6046563, 24.017276], [69.6052842, 24.0018288], [69.5961037, 23.985648], [69.6039769, 23.991795], [69.6199374, 23.9898003], [69.6545469, 24.0191303], [69.689067, 24.0287604], [69.7020031, 24.0369386], [69.6901454, 24.0207759], [69.688218, 24.0009642], [69.6980375, 23.9772384], [69.701675, 23.9764495], [69.6976958, 23.9919122], [69.7042592, 23.9880211], [69.7040042, 23.9926555], [69.71121, 23.9783357], [69.7190382, 23.9754677], [69.7479607, 23.9872993], [69.7533315, 23.99551], [69.7704464, 23.9995434], [69.7745855, 24.0123928], [69.7663916, 24.0245321], [69.7416141, 24.0287725], [69.7426946, 24.0460132], [69.7124311, 24.0474442], [69.7301546, 24.0589439], [69.7285148, 24.0664164], [69.7296683, 24.0720737], [69.7313553, 24.0729662], [69.7332578, 24.0624035], [69.7432827, 24.0675437], [69.7463695, 24.0514009], [69.7601538, 24.0598274], [69.7630695, 24.0788607], [69.7672389, 24.0727904], [69.7846112, 24.0712871], [69.788487, 24.0632877], [69.7942267, 24.0622283], [69.7906996, 24.0583856], [69.7937474, 24.0525778], [69.8159319, 24.0590253], [69.8108767, 24.0575078], [69.8125229, 24.0518363], [69.8020083, 24.0513769], [69.8071693, 24.0473597], [69.8319001, 24.0575232], [69.8534314, 24.0495545], [69.8579723, 24.0580233], [69.8675336, 24.0626025], [69.8622766, 24.0729282], [69.8700832, 24.0665772], [69.8754206, 24.0682204], [69.8737787, 24.0741499], [69.8866706, 24.0735609], [69.8831233, 24.0877382], [69.9044704, 24.0932761], [69.9022745, 24.0999814], [69.9140233, 24.0960508], [69.912574, 24.089367], [69.9153574, 24.0865192], [69.9357571, 24.0772576], [69.9605608, 24.073244], [69.9516783, 24.0693094], [69.9589283, 24.0641162], [69.9684857, 24.0676596], [69.9650835, 24.0625332], [69.9706836, 24.0617256], [69.9844692, 24.0683298], [69.975986, 24.0586031], [69.9843388, 24.0638664], [69.9784793, 24.0547263], [69.9837909, 24.0528906], [70.0065837, 24.0643249], [70.001314, 24.0715664], [70.0069204, 24.0715298], [70.0079043, 24.0776122], [70.0192929, 24.0763381], [70.0246334, 24.0781041], [70.0198963, 24.0817393], [70.0288712, 24.0821941], [70.0336886, 24.0885963], [70.0356304, 24.0860092], [70.0452414, 24.0957246], [70.0201124, 24.1090211], [70.0069054, 24.1055053], [70.0094855, 24.1126953], [69.9980347, 24.1186904], [70.0000417, 24.1243399], [69.9964138, 24.1266801], [69.9989918, 24.1336129], [70.0251498, 24.1429627], [70.0370458, 24.1572961], [70.0621233, 24.170765], [70.0675754, 24.1853977], [70.0836999, 24.2009844], [70.0844637, 24.2249155], [70.0797406, 24.2306113], [70.0827937, 24.2432014], [70.0764962, 24.2453051], [70.0782983, 24.2593192], [70.0693334, 24.2615708], [70.0752981, 24.2697649], [70.0717755, 24.2735619], [70.0834659, 24.2727955], [70.0779182, 24.2808136], [70.0799424, 24.2877486], [70.0743147, 24.2863725], [70.073197, 24.2870242], [70.0966167, 24.3002407], [70.1097925, 24.2975713], [70.1154377, 24.3008758], [70.1138562, 24.3127268], [70.1201476, 24.3255493], [70.1289259, 24.3177631], [70.1221291, 24.3113791], [70.1260988, 24.3023337], [70.1575811, 24.2862856], [70.1697335, 24.294815], [70.1689595, 24.3022848], [70.1765862, 24.307116], [70.1935258, 24.2984908], [70.188245, 24.3141138], [70.2139319, 24.3252969], [70.2101438, 24.3343526], [70.2169532, 24.3355204], [70.231937, 24.3255837], [70.2540231, 24.3307475], [70.2531372, 24.3393033], [70.2434854, 24.3433725], [70.24209, 24.3511124], [70.2557451, 24.3473893], [70.2596562, 24.3404968], [70.2931401, 24.3504251], [70.2948675, 24.3545281], [70.2875982, 24.3581934], [70.2836309, 24.3687789], [70.285343, 24.3852357], [70.289014, 24.3870061], [70.2894245, 24.3859732], [70.2870106, 24.3834202], [70.2864149, 24.3800794], [70.2923816, 24.3589249], [70.3074279, 24.3501529], [70.3304254, 24.3575759], [70.3179595, 24.367106], [70.3207352, 24.3872268], [70.3285407, 24.3812392], [70.3277108, 24.3678816], [70.3361028, 24.3509502], [70.3609952, 24.3624143], [70.3662456, 24.3542599], [70.3724297, 24.3545905], [70.377853, 24.3625194], [70.3848241, 24.3576944], [70.4042402, 24.3733436], [70.3948634, 24.3893863], [70.3935389, 24.4094723], [70.3973315, 24.3965697], [70.4021168, 24.3972975], [70.4136993, 24.3775016], [70.4269225, 24.3790509], [70.4379609, 24.3884964], [70.4495128, 24.3912172], [70.4727976, 24.3879044], [70.4929439, 24.4045631], [70.5052648, 24.4008383], [70.5110813, 24.4055415], [70.5042705, 24.4117857], [70.4912986, 24.4080539], [70.4923305, 24.4178197], [70.497819, 24.4185375], [70.4877085, 24.4311183], [70.4773573, 24.4353371], [70.4768536, 24.440361], [70.4973265, 24.4362993], [70.5008555, 24.4257133], [70.5143115, 24.4227482], [70.5248054, 24.4072022], [70.5361136, 24.4127494], [70.5419507, 24.4074141], [70.552819, 24.4228728], [70.5570061, 24.4205137], [70.562412, 24.425862], [70.5719273, 24.4225464], [70.5828569, 24.4313111], [70.5836356, 24.43735], [70.5682172, 24.4407278], [70.5609586, 24.4562434], [70.5648717, 24.4657246], [70.5756416, 24.4559652], [70.5895008, 24.4626401], [70.5943989, 24.4497216], [70.589837, 24.4446228], [70.6027353, 24.4420414], [70.602789, 24.4462875], [70.6312235, 24.4495861], [70.6614604, 24.4616087], [70.6682183, 24.4731143], [70.655719, 24.4740238], [70.6496481, 24.4828395], [70.6676838, 24.4858576], [70.6735319, 24.4815475], [70.6720157, 24.4732005], [70.6743379, 24.4787078], [70.6950918, 24.4747446], [70.70924, 24.4814048], [70.7099756, 24.4734194], [70.7197272, 24.4668754], [70.7104265, 24.4651797], [70.7092205, 24.4591457], [70.7007724, 24.4580835], [70.6939253, 24.4501541], [70.6869786, 24.456694], [70.6829887, 24.4526212], [70.6749123, 24.4583723], [70.6722941, 24.4517106], [70.6644274, 24.4520548], [70.666334, 24.4474018], [70.66385, 24.4509027], [70.6617999, 24.444621], [70.6573298, 24.4467288], [70.6626026, 24.4415241], [70.6488844, 24.4457917], [70.6109351, 24.4236833], [70.6037967, 24.4124017], [70.6048107, 24.406121], [70.5991846, 24.4056659], [70.6033667, 24.4030482], [70.5983875, 24.3982115], [70.6006888, 24.3912389], [70.5956155, 24.3900059], [70.5966164, 24.3802163], [70.5889734, 24.3756646], [70.5946608, 24.3699432], [70.5933199, 24.3637812], [70.5799449, 24.3613476], [70.5859696, 24.3592011], [70.5786937, 24.351067], [70.5838582, 24.3484397], [70.5799005, 24.3464223], [70.5829389, 24.3422732], [70.5773156, 24.341817], [70.562732, 24.355348], [70.5748336, 24.3230547], [70.5792211, 24.3221816], [70.5743073, 24.3206531], [70.5824852, 24.3146055], [70.579692, 24.2960714], [70.5879592, 24.2868839], [70.581345, 24.2717922], [70.5863272, 24.2660788], [70.5743046, 24.2571816], [70.5761918, 24.262309], [70.5746709, 24.2641262], [70.5708638, 24.2512982], [70.5810054, 24.2542814], [70.5814839, 24.2475853], [70.6122955, 24.2426298], [70.6147415, 24.2362984], [70.6206912, 24.2407392], [70.6324213, 24.2362389], [70.632359, 24.23135], [70.6382548, 24.231544], [70.6393244, 24.2274151], [70.6463754, 24.2301697], [70.6448899, 24.2237522], [70.6565334, 24.2344343], [70.6584141, 24.2279804], [70.6590486, 24.2336349], [70.6640826, 24.2322932], [70.6632771, 24.2243245], [70.6664606, 24.2209443], [70.6642663, 24.2248284], [70.6676131, 24.2232476], [70.6671524, 24.2309728], [70.6705362, 24.2322225], [70.668685, 24.2193758], [70.6721896, 24.2298883], [70.673532, 24.2252414], [70.6766789, 24.2298388], [70.6805937, 24.2287664], [70.6796573, 24.2215712], [70.6752457, 24.2275387], [70.6782478, 24.221072], [70.6818951, 24.2210318], [70.683058, 24.224107], [70.6852586, 24.2207373], [70.6861578, 24.2251021], [70.6884024, 24.2250771], [70.6970081, 24.2180335], [70.7121822, 24.2196649], [70.7132493, 24.2155355], [70.7143646, 24.2150084], [70.7361132, 24.2255699], [70.7382914, 24.2206557], [70.7340621, 24.2191599], [70.7351564, 24.2170887], [70.7565698, 24.2235338], [70.7570602, 24.2183816], [70.780998, 24.2246649], [70.7868268, 24.2200938], [70.7880209, 24.2252263], [70.7935673, 24.2205292], [70.8017574, 24.2242924], [70.8031239, 24.2217029], [70.8070479, 24.221399], [70.8158434, 24.2282421], [70.8360843, 24.2308299], [70.8387203, 24.2385179], [70.8350968, 24.2402338], [70.8348437, 24.2421671], [70.8432059, 24.2382062], [70.8613387, 24.2500796], [70.8789845, 24.2476749], [70.8976352, 24.2563213], [70.8965778, 24.2607089], [70.9159249, 24.2594371], [70.9140472, 24.2652498], [70.9025626, 24.2668097], [70.9000752, 24.2694141], [70.9037618, 24.271941], [70.8960703, 24.2738384], [70.8954723, 24.2807934], [70.9003011, 24.2845929], [70.9112011, 24.2813683], [70.9517378, 24.2888297], [70.9373785, 24.286054], [70.9290342, 24.2819149], [70.9353691, 24.2831209], [70.9361485, 24.2789939], [70.9440655, 24.2827526], [70.9510152, 24.2782891], [70.9414067, 24.274038], [70.9438463, 24.2683459], [70.9405804, 24.2750778], [70.9363511, 24.2738452], [70.9280068, 24.2603135], [70.9321731, 24.2574302], [70.9306613, 24.2502446], [70.9332235, 24.2526562], [70.9436233, 24.2536819], [70.9496747, 24.2456279], [70.9533575, 24.2478964], [70.9563535, 24.2419397], [70.9672441, 24.2384542], [70.9641264, 24.236436], [70.968552, 24.2322618], [70.9878254, 24.2266078], [70.9896293, 24.2162919], [71.0008254, 24.2146012], [71.0090123, 24.2178384], [71.0153091, 24.2257316], [71.0122637, 24.2283451], [71.0134223, 24.2306455], [71.0175774, 24.2272455], [71.0171138, 24.233427], [71.022653, 24.2377277], [71.0223669, 24.2462225], [71.0163869, 24.2496469], [71.0179197, 24.2578603], [71.0126927, 24.2556139], [71.0093903, 24.2597745], [71.0153155, 24.2617545], [71.0160065, 24.269979], [71.0214519, 24.2593572], [71.030316, 24.2696594], [71.0346768, 24.2614965], [71.0422907, 24.269797], [71.0392444, 24.2663241], [71.0464825, 24.2626246], [71.0419189, 24.2580546], [71.0562578, 24.2596624], [71.0555279, 24.2666193], [71.0635615, 24.260078], [71.08821, 24.2629979], [71.075683, 24.2547671], [71.0734999, 24.2499081], [71.0839395, 24.2533676], [71.0798692, 24.2446751], [71.0831773, 24.2410278], [71.09635, 24.2400749], [71.0887167, 24.2365778], [71.0982464, 24.235932], [71.1006359, 24.2276655], [71.1065055, 24.2262979], [71.1001867, 24.2173799], [71.1099529, 24.2141573], [71.113395, 24.2187409], [71.1089368, 24.2206037], [71.1283337, 24.2229067], [71.13404, 24.2286154], [71.1568833, 24.2189027], [71.1526285, 24.2161327], [71.1558903, 24.2099116], [71.1498296, 24.2081962], [71.1527446, 24.206354], [71.1422872, 24.2101036], [71.147593, 24.2002518], [71.1416907, 24.1995629], [71.1393356, 24.1929065], [71.1439523, 24.1838362], [71.1356429, 24.190128], [71.139902, 24.1764318], [71.1310391, 24.1662641], [71.1486291, 24.1616433], [71.13596, 24.150243], [71.145367, 24.1426493], [71.1356707, 24.1412417], [71.1327431, 24.1506733], [71.1243201, 24.150019], [71.1221814, 24.1393715], [71.1340687, 24.1376618], [71.1215337, 24.1341054], [71.1171279, 24.1219453], [71.127218, 24.1218051], [71.1252901, 24.1238903], [71.1262245, 24.1295378], [71.1373549, 24.1244938], [71.1331122, 24.1222375], [71.1328107, 24.1209551], [71.1431507, 24.1190094], [71.1539043, 24.125033], [71.1569011, 24.119845], [71.1605877, 24.1223657], [71.1591345, 24.1192988], [71.180104, 24.1160415], [71.1796591, 24.1228665], [71.1859653, 24.1145429], [71.1960938, 24.1167132], [71.1989931, 24.122332], [71.2005557, 24.1153626], [71.2264631, 24.1221912], [71.2191185, 24.1189533], [71.2208554, 24.1140396], [71.2153769, 24.1147245], [71.2142038, 24.1102768], [71.2208983, 24.1083787], [71.2157878, 24.1045936], [71.2141771, 24.1087337], [71.2129059, 24.1000041], [71.205252, 24.0949692], [71.2163228, 24.0868329], [71.2156697, 24.0814394], [71.2194315, 24.0883317], [71.2378477, 24.0836893], [71.2399564, 24.0866573], [71.2457866, 24.0889758], [71.2398133, 24.0839178], [71.2451635, 24.0853829], [71.2492404, 24.0781191], [71.2430187, 24.0748658], [71.2469543, 24.0755798], [71.2444381, 24.0678981], [71.2345173, 24.061354], [71.2339017, 24.0500423], [71.270206, 24.0592848], [71.2683784, 24.0509497], [71.2656158, 24.053178], [71.2594986, 24.0478656], [71.257539, 24.0399188], [71.2708422, 24.0317462], [71.2617086, 24.0300804], [71.2654175, 24.0259089], [71.261777, 24.0259628], [71.2650293, 24.0197398], [71.2612763, 24.0133633], [71.265192, 24.0130481], [71.2588968, 24.0054225], [71.2618824, 23.9999755], [71.2650074, 24.0025022], [71.2712298, 23.9980362], [71.2643347, 23.99608], [71.2550527, 23.9776922], [71.2443481, 23.9739899], [71.2496445, 23.9726259], [71.2446717, 23.960349], [71.2388471, 23.9635215], [71.2146821, 23.958469], [71.2068863, 23.9610252], [71.1713734, 23.946995], [71.1780864, 23.9466425], [71.1544773, 23.941058], [71.1634422, 23.9414463], [71.0929127, 23.9078157], [71.0648875, 23.8702419], [71.0638159, 23.8555895], [71.0554769, 23.8412915], [71.062231, 23.8350257], [71.0597689, 23.8296551], [71.0685938, 23.8305661], [71.0701778, 23.8246268], [71.0628909, 23.8236952], [71.0689696, 23.8189821], [71.0600011, 23.8089379], [71.0566277, 23.8078254], [71.0544899, 23.8141577], [71.0474428, 23.8106491], [71.0394506, 23.800334], [71.0428602, 23.7858793], [71.0536269, 23.7859937], [71.0498639, 23.7510487], [71.0701537, 23.7348246], [71.0603085, 23.7397161], [71.0553427, 23.7350223], [71.0603678, 23.7079372], [71.0697894, 23.6851676], [71.0809837, 23.6863041], [71.0642311, 23.6692882], [71.0510552, 23.6663754], [71.04534, 23.6492106], [71.0474582, 23.6327141], [71.0554823, 23.61897], [71.064824, 23.618074], [71.0669083, 23.6085255], [71.0812755, 23.5988128], [71.0935371, 23.6061101], [71.0888314, 23.6174952], [71.0946078, 23.6295113], [71.1110943, 23.6300596], [71.0979011, 23.6258644], [71.0960742, 23.6163684], [71.1082485, 23.6267532], [71.1300812, 23.6298001], [71.1433893, 23.6238267], [71.1476508, 23.6282711], [71.1461352, 23.6209583], [71.1305917, 23.6268335], [71.1188006, 23.6230071], [71.1273292, 23.6150418], [71.1382279, 23.6155359], [71.1392821, 23.6116616], [71.1501825, 23.6122828], [71.1540216, 23.6079836], [71.1636168, 23.6141547], [71.1675505, 23.5986612], [71.1716357, 23.6009199], [71.171679, 23.6119834], [71.1752911, 23.6109037], [71.1750959, 23.5990704], [71.1865707, 23.6007103], [71.1830846, 23.5925255], [71.1870974, 23.5904106], [71.1842758, 23.5801581], [71.1893654, 23.5672211], [71.204839, 23.5744641], [71.2173831, 23.556789], [71.2222546, 23.5643095], [71.225179, 23.5556484], [71.239238, 23.5617499], [71.2495608, 23.5614726], [71.2453181, 23.5581891], [71.2517252, 23.5574528], [71.2788964, 23.5631037], [71.2707153, 23.5580774], [71.2889554, 23.5637276], [71.290574, 23.5604872], [71.3054864, 23.5673426], [71.3052659, 23.5706907], [71.3134216, 23.5741715], [71.3071699, 23.5678323], [71.3099064, 23.5647041], [71.2969181, 23.5561487], [71.3040965, 23.5516684], [71.2978597, 23.5461003], [71.30425, 23.5444621], [71.3033188, 23.5390727], [71.2904672, 23.5382332], [71.2956877, 23.533525], [71.2911349, 23.5284462], [71.3095155, 23.5263734], [71.2899899, 23.5267902], [71.2859178, 23.517202], [71.2890019, 23.5180567], [71.2903721, 23.516622], [71.2720253, 23.5125167], [71.2679559, 23.4948225], [71.2727711, 23.4746831], [71.2653971, 23.4756904], [71.2512899, 23.4662467], [71.2369299, 23.4499859], [71.2349492, 23.4399795], [71.2474411, 23.4201159], [71.2716577, 23.434046], [71.2624479, 23.4254316], [71.2624653, 23.4182269], [71.2766008, 23.4296], [71.2761767, 23.4211152], [71.2924904, 23.4293673], [71.294061, 23.4234265], [71.3130069, 23.4226323], [71.3082237, 23.4201301], [71.3623839, 23.429523], [71.3044707, 23.412724], [71.2855195, 23.3969209], [71.2745698, 23.4005546], [71.2646749, 23.3842311], [71.2593625, 23.3832787], [71.263076, 23.3803947], [71.2600544, 23.3747777], [71.2667849, 23.3690196], [71.2641852, 23.3636539], [71.2427105, 23.3462092], [71.2515086, 23.3473695], [71.2532538, 23.3434847], [71.2427384, 23.3312852], [71.2426131, 23.323825], [71.2491554, 23.323474], [71.2754615, 23.3466367], [71.2929177, 23.3408503], [71.3243806, 23.3554377], [71.3378066, 23.3423729], [71.3427637, 23.3549062], [71.384905, 23.3583861], [71.394241, 23.3506539], [71.3759982, 23.3433415], [71.3775665, 23.3375292], [71.3652711, 23.335528], [71.3652983, 23.3292245], [71.3547808, 23.3252663], [71.3515586, 23.3163094], [71.3180801, 23.2975111], [71.309721, 23.2973773], [71.2946303, 23.2783013], [71.270722, 23.2644975], [71.2539709, 23.2620367], [71.2512493, 23.2658073], [71.2494685, 23.2592711], [71.2388843, 23.259165], [71.2178073, 23.2392658], [71.2246933, 23.2263029], [71.2237175, 23.2178255], [71.2159991, 23.2140747], [71.2199885, 23.211188], [71.2123975, 23.2066633], [71.2167657, 23.2014556], [71.2443648, 23.2038945], [71.2532187, 23.2006801], [71.2661287, 23.2069273], [71.2973118, 23.2072467], [71.2971496, 23.1814738], [71.2686538, 23.1675865], [71.2269401, 23.1719264], [71.2098367, 23.1863715], [71.1829128, 23.1909927], [71.1709027, 23.1884575], [71.1666081, 23.1810544], [71.163806, 23.1971749], [71.1085314, 23.2226291], [71.0476496, 23.1740262], [71.0339556, 23.1703437], [71.0078783, 23.1760825], [71.0008407, 23.170768], [70.9850014, 23.1725127], [70.9795191, 23.159329], [70.9683981, 23.1601113], [70.964431, 23.1552714], [70.9696259, 23.1679453], [70.9659408, 23.1633592], [70.96127, 23.167535], [70.9638665, 23.1738072], [70.954074, 23.1703262], [70.950147, 23.1586662], [70.9599772, 23.145677], [70.954112, 23.1442056], [70.9686295, 23.1378488], [70.9536541, 23.1413806], [70.9565189, 23.137485], [70.9519045, 23.1358688], [70.9472381, 23.1403014], [70.9324791, 23.1395829], [70.9491559, 23.1478699], [70.9430238, 23.1581707], [70.9578738, 23.1778335], [70.9581056, 23.1928826], [70.9485649, 23.1905041], [70.9448495, 23.1962977], [70.9403512, 23.1910408], [70.9235787, 23.190309], [70.9079474, 23.1831856], [70.895368, 23.1846737], [70.8671308, 23.1777209], [70.870687, 23.1633748], [70.8938057, 23.160393], [70.8918429, 23.1390465], [70.8987191, 23.1333022], [70.9007628, 23.1400967], [70.9079367, 23.1357643], [70.904529, 23.1309159], [70.8870697, 23.1360155], [70.8864593, 23.1321625], [70.8803493, 23.1330075], [70.8809938, 23.1393046], [70.8788509, 23.1353417], [70.8814967, 23.1255307], [70.8735362, 23.1233094], [70.8644479, 23.1301083], [70.8603824, 23.1178032], [70.8534153, 23.1169841], [70.8526319, 23.1207254], [70.8492017, 23.1140745], [70.843395, 23.1167159], [70.8438564, 23.1097619], [70.8366534, 23.1120331], [70.8316958, 23.0952342], [70.8270089, 23.0983767], [70.8331703, 23.1013937], [70.8289838, 23.1107071], [70.8135587, 23.1119146], [70.8300067, 23.1142982], [70.831314, 23.1184009], [70.8228572, 23.1205577], [70.8312138, 23.1212328], [70.8304525, 23.1266462], [70.8353453, 23.1283908], [70.8251977, 23.1290234], [70.8136784, 23.1415095], [70.8089413, 23.1410493], [70.8179785, 23.1583449], [70.8282141, 23.1632548], [70.825, 23.1804381], [70.8115503, 23.1758016], [70.808089, 23.1852563], [70.7938976, 23.1808927], [70.7965677, 23.1748015], [70.7889034, 23.171324], [70.7912522, 23.1664825], [70.7772091, 23.1671417], [70.7694953, 23.1611863], [70.775157, 23.1524801], [70.7700145, 23.1512752], [70.7609656, 23.164755], [70.7562187, 23.1643232], [70.7607431, 23.166278], [70.7540748, 23.1805316], [70.7404387, 23.1736844], [70.7288646, 23.1954187], [70.7155765, 23.1963999]], [[70.0705996, 23.49633], [70.0666977, 23.4969998], [70.065574, 23.496107], [70.0705996, 23.49633]], [[70.0648311, 23.5771948], [70.0584227, 23.5790404], [70.0595036, 23.574528], [70.0648311, 23.5771948]], [[69.9198165, 23.6468494], [69.920395, 23.6496774], [69.9181616, 23.6499481], [69.9198165, 23.6468494]], [[69.9419257, 23.8073378], [69.9424768, 23.8061756], [69.9434638, 23.8073284], [69.9419257, 23.8073378]], [[69.9459299, 23.8194111], [69.94676, 23.8181191], [69.9464895, 23.8194077], [69.9459299, 23.8194111]], [[69.9422994, 23.8203338], [69.9422882, 23.8187895], [69.9450869, 23.8189016], [69.9422994, 23.8203338]], [[69.9430123, 23.8222605], [69.9420372, 23.8227812], [69.9420334, 23.8222665], [69.9430123, 23.8222605]], [[69.942608, 23.8243221], [69.9434547, 23.8253467], [69.9426154, 23.8253518], [69.942608, 23.8243221]], [[69.9688232, 23.8504145], [69.9648626, 23.8446474], [69.9713169, 23.8470526], [69.9688232, 23.8504145]], [[70.071657, 23.8659494], [70.0727744, 23.8656842], [70.0725009, 23.8664583], [70.071657, 23.8659494]], [[70.0694329, 23.8677666], [70.0677621, 23.8688078], [70.0680335, 23.8677762], [70.0694329, 23.8677666]], [[69.3063469, 23.9000073], [69.3129195, 23.8969049], [69.3129394, 23.9051425], [69.3065071, 23.9083727], [69.2950209, 23.9056927], [69.2975172, 23.895391], [69.3063469, 23.9000073]], [[69.8016604, 24.0195722], [69.7966072, 24.0129984], [69.8095461, 23.9736953], [69.8389078, 23.9725759], [69.8786429, 23.950757], [69.8634069, 23.9680964], [69.8556741, 23.9869144], [69.8192697, 24.0051653], [69.8091635, 24.0192925], [69.8016604, 24.0195722]], [[69.2366815, 24.0046428], [69.2232205, 23.9821012], [69.2975409, 23.9817002], [69.3044467, 23.9849596], [69.3008243, 23.9934614], [69.2826334, 24.0032781], [69.2860165, 24.0125387], [69.2806848, 24.0092021], [69.2543645, 24.0196731], [69.2507185, 24.0182637], [69.2526635, 24.0097657], [69.2479039, 24.0119611], [69.2417304, 24.0074667], [69.2445216, 24.0015415], [69.2366815, 24.0046428]], [[69.8282139, 24.0072218], [69.8276338, 24.0041361], [69.8301521, 24.0036077], [69.8282139, 24.0072218]], [[69.6625172, 24.016007], [69.6637852, 24.0172886], [69.6623815, 24.0167799], [69.6625172, 24.016007]], [[69.2983741, 24.0244846], [69.3056617, 24.0248568], [69.3056747, 24.030179], [69.2895555, 24.0482374], [69.2873199, 24.0318426], [69.2964259, 24.030409], [69.2983741, 24.0244846]], [[69.2430394, 24.1073422], [69.2242396, 24.1013213], [69.1939548, 24.1020068], [69.1967288, 24.0821822], [69.206536, 24.0783079], [69.21101, 24.070965], [69.2267051, 24.0681109], [69.2418521, 24.0724638], [69.2553016, 24.0684525], [69.25585, 24.0622737], [69.2656537, 24.0582665], [69.2707105, 24.0635351], [69.2735028, 24.0582527], [69.2800942, 24.0601718], [69.2787132, 24.0696987], [69.2833592, 24.0786997], [69.2486232, 24.0944625], [69.2430394, 24.1073422]], [[70.1848546, 23.4144219], [70.181501, 23.413675], [70.1845609, 23.4127504], [70.1848546, 23.4144219]], [[70.186302, 23.420331], [70.1832396, 23.4209974], [70.1826783, 23.420616], [70.186302, 23.420331]], [[70.0869303, 23.479743], [70.0852391, 23.4776955], [70.0877483, 23.4774205], [70.0869303, 23.479743]], [[70.1163013, 23.4880297], [70.1130635, 23.4847067], [70.1145901, 23.483666], [70.1163013, 23.4880297]], [[70.2884466, 23.5698389], [70.2873499, 23.5719071], [70.2867914, 23.5719118], [70.2884466, 23.5698389]], [[70.3722906, 23.617252], [70.3841479, 23.6158598], [70.3799772, 23.6176986], [70.3982522, 23.6288596], [70.3963789, 23.636598], [70.3730738, 23.6253522], [70.3722906, 23.617252]], [[70.0797119, 23.6847939], [70.0484835, 23.7144745], [69.9955139, 23.8211964], [69.9966997, 23.8374683], [69.9811452, 23.8696987], [69.9733496, 23.8584382], [69.972559, 23.844971], [69.9599674, 23.8423807], [69.9507434, 23.8290856], [69.9577313, 23.7838207], [69.9702814, 23.7666381], [69.9723567, 23.7527996], [69.9875756, 23.7356124], [69.9760132, 23.7306368], [69.9675144, 23.7319938], [69.9619802, 23.7364266], [69.9377683, 23.730094], [69.9201777, 23.7036745], [69.9217589, 23.6973403], [69.9440931, 23.6879288], [69.9618746, 23.6707083], [69.9543276, 23.6650762], [69.9227423, 23.662004], [69.9322458, 23.6486904], [69.934482, 23.6363998], [69.9495759, 23.6223153], [69.9993298, 23.6002893], [70.0527174, 23.6123273], [70.0946449, 23.5723673], [70.1038689, 23.5367518], [70.1388084, 23.5244506], [70.1541818, 23.5270135], [70.1689962, 23.5234255], [70.1807359, 23.5154803], [70.1966683, 23.488053], [70.2240609, 23.4806185], [70.2346826, 23.4877967], [70.2391548, 23.5157366], [70.2567644, 23.5475143], [70.2799642, 23.5733921], [70.2984123, 23.5900434], [70.3584943, 23.61174], [70.3665978, 23.6202515], [70.3669931, 23.6258651], [70.3425836, 23.645692], [70.3228188, 23.6438815], [70.2848704, 23.6178068], [70.2603621, 23.6152714], [70.2058112, 23.5989718], [70.1619334, 23.5957116], [70.138611, 23.6000585], [70.1176603, 23.6080274], [70.106592, 23.6431573], [70.0797119, 23.6847939]], [[70.3742766, 23.7364245], [70.3727605, 23.7290793], [70.3904772, 23.7377209], [70.3705644, 23.7435153], [70.3742766, 23.7364245]], [[70.3724313, 23.7818105], [70.3936162, 23.771087], [70.3993821, 23.7779029], [70.3724313, 23.7818105]], [[70.2187094, 23.7885401], [70.2223284, 23.7867098], [70.2267997, 23.7862885], [70.2156843, 23.7940982], [70.216899, 23.8043841], [70.2114, 23.8147228], [70.2133327, 23.7969479], [70.2187094, 23.7885401]], [[70.1730037, 23.7966149], [70.1843715, 23.8113293], [70.1931063, 23.8333975], [70.1870436, 23.8282966], [70.1802134, 23.8080999], [70.1656008, 23.8009734], [70.1730037, 23.7966149]], [[70.2114072, 23.815495], [70.2116822, 23.8149781], [70.2116869, 23.8154928], [70.2114072, 23.815495]], [[70.0995483, 23.8379543], [70.1282124, 23.8035138], [70.1050159, 23.8392021], [70.0841074, 23.8486167], [70.0995483, 23.8379543]], [[70.102661, 23.8585234], [70.1018029, 23.8563414], [70.1032011, 23.856203], [70.102661, 23.8585234]], [[70.0780747, 23.863588], [70.069208, 23.8574723], [70.077864, 23.8550955], [70.0735608, 23.8592438], [70.0780747, 23.863588]], [[70.4619535, 23.9049463], [70.4873572, 23.923233], [70.4797983, 23.9273205], [70.4546164, 23.924704], [70.4289088, 23.9293205], [70.416236, 23.922618], [70.3590884, 23.919659], [70.3497072, 23.9319657], [70.3503907, 23.9261263], [70.3336479, 23.9280966], [70.3487245, 23.936825], [70.3452789, 23.9425626], [70.3228211, 23.9266211], [70.2899378, 23.9201268], [70.2896923, 23.9236029], [70.2728677, 23.9167942], [70.2233495, 23.9252885], [70.1925623, 23.9401832], [70.1752353, 23.9374082], [70.1708364, 23.9293866], [70.1841831, 23.877499], [70.1902985, 23.8663341], [70.2017784, 23.8617619], [70.2039058, 23.8514432], [70.2174639, 23.8482798], [70.2279138, 23.8366609], [70.2646923, 23.8165609], [70.2827167, 23.8158935], [70.2925872, 23.803565], [70.3082943, 23.7967327], [70.3367042, 23.7977144], [70.3348159, 23.789154], [70.3610064, 23.7816729], [70.3709567, 23.7837731], [70.3694057, 23.7947694], [70.3787935, 23.8120851], [70.3979632, 23.8114555], [70.4040388, 23.8171917], [70.4097247, 23.836445], [70.4177007, 23.8386861], [70.4111194, 23.8432555], [70.4177713, 23.8419602], [70.421977, 23.8496536], [70.4209899, 23.8612713], [70.435152, 23.8743008], [70.451889, 23.875792], [70.4557514, 23.8784604], [70.4456234, 23.8764591], [70.4589057, 23.8866618], [70.4619535, 23.9049463]], [[70.0893295, 23.8707157], [70.0893155, 23.8690423], [70.0915512, 23.8686409], [70.0893295, 23.8707157]], [[70.1325228, 23.9453044], [70.1452523, 23.943923], [70.1432137, 23.9508877], [70.132841, 23.9496777], [70.1325228, 23.9453044]], [[70.8747186, 23.1283132], [70.8776745, 23.1407601], [70.8695895, 23.1396976], [70.8649467, 23.1460584], [70.8349934, 23.1536159], [70.8356201, 23.1587558], [70.8262344, 23.1542324], [70.8287982, 23.1482835], [70.8509388, 23.1392748], [70.8587664, 23.1216827], [70.8636256, 23.1310183], [70.8747186, 23.1283132]], [[70.8341418, 23.1626333], [70.839812, 23.1599937], [70.839699, 23.1720907], [70.8342435, 23.1700954], [70.8341418, 23.1626333]], [[71.0237466, 23.707134], [71.031186, 23.7093525], [71.0233822, 23.7197475], [71.0245954, 23.7259073], [71.0180533, 23.7185305], [71.0237466, 23.707134]], [[70.4146497, 23.724841], [70.4253459, 23.7249135], [70.4320212, 23.7284135], [70.4168486, 23.7363067], [70.410304, 23.7320835], [70.4146497, 23.724841]], [[70.4028422, 23.7363263], [70.4047894, 23.7329871], [70.4077597, 23.7340413], [70.4028422, 23.7363263]], [[70.466248, 23.7391598], [70.4606196, 23.7358673], [70.4605909, 23.7332938], [70.466248, 23.7391598]], [[70.4040384, 23.741286], [70.4045963, 23.7388602], [70.4056477, 23.7403726], [70.4040384, 23.741286]], [[70.4700851, 23.7197863], [70.4810714, 23.7168395], [70.5195849, 23.7337546], [70.5150109, 23.7371453], [70.5229996, 23.7509646], [70.5111837, 23.7567427], [70.5165585, 23.7620948], [70.4809427, 23.7606415], [70.4675102, 23.7417869], [70.4700851, 23.7197863]], [[71.0269887, 23.7902057], [71.0258324, 23.7877759], [71.0277914, 23.7878793], [71.0269887, 23.7902057]], [[71.0102554, 23.793126], [71.0104597, 23.7882343], [71.0191605, 23.7903083], [71.0183535, 23.7923773], [71.0102554, 23.793126]], [[71.0237215, 23.7959095], [71.0209494, 23.7974898], [71.0214746, 23.7952953], [71.0237215, 23.7959095]], [[70.9960396, 23.7961411], [71.0054155, 23.7966633], [71.0026657, 23.8087929], [70.993655, 23.8047925], [70.9960396, 23.7961411]], [[71.0152248, 23.8070855], [71.0167494, 23.7971583], [71.0217077, 23.8013397], [71.0152248, 23.8070855]], [[71.0228817, 23.8049267], [71.0277494, 23.8031896], [71.0326561, 23.8040262], [71.025894, 23.8097761], [71.0228817, 23.8049267]], [[71.0428628, 23.8128974], [71.0386122, 23.8093512], [71.0406918, 23.8081653], [71.0428628, 23.8128974]], [[71.0125039, 23.8120101], [71.0084686, 23.8133493], [71.0102214, 23.8090802], [71.0125039, 23.8120101]], [[70.984602, 23.8072254], [70.9949402, 23.8065773], [70.9952889, 23.8202108], [70.9854112, 23.8144198], [70.984602, 23.8072254]], [[71.0244, 23.8216324], [71.0193344, 23.8196402], [71.0195066, 23.8126905], [71.0244, 23.8216324]]]}}]}